OBJECT_NAME,OBJECT_ID,EPOCH,MEAN_MOTION,ECCENTRICITY,INCLINATION,RA_OF_ASC_NODE,ARG_OF_PERICENTER,MEAN_ANOMALY,EPHEMERIS_TYPE,CLASSIFICATION_TYPE,NORAD_CAT_ID,ELEMENT_SET_NO,REV_AT_EPOCH,BSTAR,MEAN_MOTION_DOT,MEAN_MOTION_DDOT
KUIPER-00616,2026-151N,2026-07-14T14:15:26.556768,15.38376477,.00031342,51.8773,183.2093,119.7585,240.3715,0,U,69775,999,192,.21011943E-3,.769E-4,0
KUIPER-00617,2026-151P,2026-07-14T14:21:09.555264,15.37766846,.00040476,51.8786,183.2317,132.6320,227.5009,0,U,69776,999,192,.21714994E-3,.7799E-4,0
KUIPER-00619,2026-151Q,2026-07-14T14:12:34.883424,15.38526505,.00017884,51.8788,183.1898,64.3633,295.7539,0,U,69777,999,192,.32626808E-3,.12228E-3,0
KUIPER-00621,2026-151R,2026-07-14T12:41:39.847488,15.38316505,.00018758,51.8778,183.5215,104.1155,256.0041,0,U,69778,999,191,.29675337E-3,.11006E-3,0
KUIPER-00622,2026-151S,2026-07-14T08:15:44.174592,15.36973527,.00070339,51.8732,184.5333,146.8683,213.2746,0,U,69779,999,188,.28048241E-3,.993E-4,0
KUIPER-00623,2026-151T,2026-07-14T09:43:53.838336,15.37422381,.00051163,51.8772,184.1931,133.5870,226.5542,0,U,69780,999,189,.30223718E-3,.1089E-3,0
KUIPER-00626,2026-151U,2026-07-14T05:20:33.955008,15.35447170,.00097599,51.8723,185.2117,162.9766,197.1549,0,U,69781,999,186,-.70856049E-3,-.25123E-3,0
KUIPER-00627,2026-151V,2026-07-14T08:30:27.010656,15.35461120,.00108295,51.8692,184.5970,164.3900,195.7422,0,U,69782,999,188,.25341247E-3,.8503E-4,0
KUIPER-00629,2026-151W,2026-07-14T12:57:18.091872,15.36957774,.00073195,51.8737,183.5921,144.0361,216.1120,0,U,69783,999,191,.25233056E-3,.8888E-4,0
KUIPER-00631,2026-151X,2026-07-14T12:59:55.955040,15.36726137,.00078776,51.8705,183.6046,152.9876,207.1522,0,U,69784,999,191,.26678021E-3,.9349E-4,0
KUIPER-00634,2026-151Y,2026-07-14T09:41:06.300960,15.37723016,.00038102,51.8762,184.1808,135.1951,224.9344,0,U,69785,999,189,.22528107E-3,.8094E-4,0
KUIPER-00639,2026-151Z,2026-07-14T13:06:12.824064,15.35847516,.00099282,51.8677,183.6301,160.4705,199.6664,0,U,69786,999,191,-.9126209E-5,-.714E-5,0
KUIPER-00641,2026-151AA,2026-07-14T13:12:36.326016,15.35095989,.00090046,51.8670,183.6581,162.6396,197.4900,0,U,69787,999,191,.8377536E-3,.28729E-3,0
KUIPER-00644,2026-151AB,2026-07-14T08:21:04.000608,15.36547957,.00084241,51.8733,184.5570,155.0141,205.1254,0,U,69788,999,188,.32455227E-3,.11396E-3,0
KUIPER-00646,2026-151AC,2026-07-14T13:05:38.530176,15.35927525,.00097073,51.8698,183.6275,163.5259,196.6045,0,U,69789,999,191,-.99821261E-4,-.3939E-4,0
KUIPER-00647,2026-151AD,2026-07-14T11:36:39.764448,15.35569778,.00122171,51.8667,183.9553,162.4994,197.6415,0,U,69790,999,190,-.66913466E-3,-.23867E-3,0
KUIPER-00662,2026-151AE,2026-07-14T11:27:29.410272,15.36321024,.00082067,51.8719,183.9237,150.8768,209.2677,0,U,69791,999,190,-.36493324E-2,-.129583E-2,0
LINK,2026-152A,2026-07-14T13:09:23.434560,15.66971156,.0024505,20.5927,332.3809,346.3344,13.6438,0,U,69792,999,175,.10950058E-2,.126451E-2,0
ISS OBJECT YJ,1998-067YJ,2026-07-14T08:11:04.731936,15.49993951,.00077835,51.6305,165.6410,308.5136,51.5154,0,U,69794,999,186,.37359206E-3,.20936E-3,0
ISS OBJECT YK,1998-067YK,2026-07-14T08:06:11.750400,15.50646300,.00067507,51.6303,165.6181,317.3259,42.7205,0,U,69795,999,186,.63853194E-3,.37028E-3,0
ISS OBJECT YL,1998-067YL,2026-07-14T08:07:23.131488,15.50424076,.00088316,51.6304,165.6239,309.9161,50.1051,0,U,69796,999,185,.49739451E-3,.28499E-3,0
ISS OBJECT YM,1998-067YM,2026-07-14T08:07:03.414144,15.50464851,.00095962,51.6305,165.6220,301.0475,58.9572,0,U,69797,999,184,.51165926E-3,.29384E-3,0
ISS OBJECT YN,1998-067YN,2026-07-14T08:07:52.511808,15.50274267,.00092152,51.6307,165.6254,312.1813,47.8393,0,U,69798,999,186,.34127324E-3,.19283E-3,0
ISS OBJECT YP,1998-067YP,2026-07-14T08:06:56.798496,15.50461808,.00097668,51.6304,165.6216,301.1564,58.8467,0,U,69799,999,185,.49363171E-3,.28327E-3,0
QIANFAN-201,2026-153A,2026-07-14T13:31:00.805728,14.53448399,.00870709,89.0162,359.0517,89.0722,272.0462,0,U,69800,999,148,.34512192E-4,.17E-5,0
QIANFAN-202,2026-153B,2026-07-14T09:49:45.831072,14.22911248,.00072611,88.9920,359.1409,183.0067,177.1082,0,U,69801,999,143,.1880189E-4,.57E-6,0
QIANFAN-203,2026-153C,2026-07-14T13:10:53.483232,14.23362606,.0007618,88.9921,359.1245,182.9967,177.1181,0,U,69802,999,145,.1750119E-4,.54E-6,0
QIANFAN-204,2026-153D,2026-07-14T13:10:24.718080,14.22390279,.00071323,88.9921,359.1246,185.6468,174.4644,0,U,69803,999,145,.1739846E-4,.53E-6,0
QIANFAN-205,2026-153E,2026-07-14T13:12:01.281312,14.22264099,.00073362,88.9920,359.1245,184.0636,176.0497,0,U,69804,999,145,.17511997E-4,.53E-6,0
